H-2A R/B                
1 28932U 06002B   26065.96967034  .00011526  00000+0  57777-3 0  9995
2 28932  98.2405 212.7593 0051979 250.4216 109.1398 15.16344462 94026
RESURS-DK 1             
1 29228U 06021A   26065.89049273  .00003438  00000+0  20190-3 0  9995
2 29228  69.9310 244.2641 0002145 163.7769 196.3466 15.12718353 87104
CZ-4B R/B               
1 29507U 06046C   26066.10249541  .00004944  00000+0  25153-3 0  9994
2 29507  97.5594 111.0178 0031651 276.7665  82.9966 15.16870457 59657
CZ-2C R/B               
1 31114U 07010B   26066.18968470  .00000159  00000+0  92326-4 0  9991
2 31114  98.3977 179.5938 0057949 302.0241  57.5314 14.20245016979367
COSMO-SKYMED 1          
1 31598U 07023A   26066.19054748  .00003983  00000+0  35570-3 0  9991
2 31598  97.8866 257.2026 0000992 100.1471 259.9861 14.96508951 14531
COSMOS 2428             
1 31792U 07029A   26066.12768954  .00000071  00000+0  63552-4 0  9994
2 31792  70.9428 208.7201 0008993 279.6115  80.3990 14.12945507963739
SL-16 R/B               
1 31793U 07029B   26066.04035022 -.00000060  00000+0 -63099-5 0  9996
2 31793  70.9757 177.9533 0002359 277.0170 255.5967 14.14833235964998
KORONAS-FOTON           
1 33504U 09003A   26066.04106689  .00012247  00000+0  27419-3 0  9992
2 33504  82.4274 278.6320 0011087 158.6844 201.4867 15.43244793945339
CZ-2C R/B               
1 37731U 11030B   26065.91070544  .00002275  00000+0  29230-3 0  9999
2 37731  97.8547  23.2296 0052695   1.1084  64.9090 14.81208917789685
H-2A R/B                
1 38341U 12025E   26066.18551808  .00005281  00000+0  47843-3 0  9999
2 38341  98.4735  33.0310 0043496 322.8445  36.9764 14.95140776747840
SHIJIAN-16 (SJ-16)      
1 39358U 13057A   26066.21562574  .00006691  00000+0  65523-3 0  9991
2 39358  74.9734 189.7706 0015579 119.0998 241.1752 14.92336200671136
SL-4 R/B                
1 39679U 14021B   26066.16164549  .00016718  00000+0  36867-3 0  9993
2 39679  51.6088 349.6101 0097799  93.7843 267.4330 15.39078300655886
