CCSDS_OMM_VERS = 2.0
CREATION_DATE  = 
ORIGINATOR     = 

OBJECT_NAME    = H-2A R/B
OBJECT_ID      = 2006-002B
CENTER_NAME    = EARTH
REF_FRAME      = TEME
TIME_SYSTEM    = UTC
MEAN_ELEMENT_THEORY = SGP/SGP4

EPOCH          = 2026-03-06T23:16:19.517376
MEAN_MOTION    = 15.16344462
ECCENTRICITY   = .0051979
INCLINATION    = 98.2405
RA_OF_ASC_NODE = 212.7593
ARG_OF_PERICENTER = 250.4216
MEAN_ANOMALY   = 109.1398

EPHEMERIS_TYPE = 0
CLASSIFICATION_TYPE = U
NORAD_CAT_ID   = 28932
ELEMENT_SET_NO = 999
REV_AT_EPOCH   = 9402
BSTAR          = .57777E-3
MEAN_MOTION_DOT = .11526E-3
MEAN_MOTION_DDOT = 0

CCSDS_OMM_VERS = 2.0
CREATION_DATE  = 
ORIGINATOR     = 

OBJECT_NAME    = RESURS-DK 1
OBJECT_ID      = 2006-021A
CENTER_NAME    = EARTH
REF_FRAME      = TEME
TIME_SYSTEM    = UTC
MEAN_ELEMENT_THEORY = SGP/SGP4

EPOCH          = 2026-03-06T21:22:18.571872
MEAN_MOTION    = 15.12718353
ECCENTRICITY   = .0002145
INCLINATION    = 69.9310
RA_OF_ASC_NODE = 244.2641
ARG_OF_PERICENTER = 163.7769
MEAN_ANOMALY   = 196.3466

EPHEMERIS_TYPE = 0
CLASSIFICATION_TYPE = U
NORAD_CAT_ID   = 29228
ELEMENT_SET_NO = 999
REV_AT_EPOCH   = 8710
BSTAR          = .2019E-3
MEAN_MOTION_DOT = .3438E-4
MEAN_MOTION_DDOT = 0

CCSDS_OMM_VERS = 2.0
CREATION_DATE  = 
ORIGINATOR     = 

OBJECT_NAME    = CZ-4B R/B
OBJECT_ID      = 2006-046C
CENTER_NAME    = EARTH
REF_FRAME      = TEME
TIME_SYSTEM    = UTC
MEAN_ELEMENT_THEORY = SGP/SGP4

EPOCH          = 2026-03-07T02:27:35.603424
MEAN_MOTION    = 15.16870457
ECCENTRICITY   = .0031651
INCLINATION    = 97.5594
RA_OF_ASC_NODE = 111.0178
ARG_OF_PERICENTER = 276.7665
MEAN_ANOMALY   = 82.9966

EPHEMERIS_TYPE = 0
CLASSIFICATION_TYPE = U
NORAD_CAT_ID   = 29507
ELEMENT_SET_NO = 999
REV_AT_EPOCH   = 5965
BSTAR          = .25153E-3
MEAN_MOTION_DOT = .4944E-4
MEAN_MOTION_DDOT = 0

CCSDS_OMM_VERS = 2.0
CREATION_DATE  = 
ORIGINATOR     = 

OBJECT_NAME    = CZ-2C R/B
OBJECT_ID      = 2007-010B
CENTER_NAME    = EARTH
REF_FRAME      = TEME
TIME_SYSTEM    = UTC
MEAN_ELEMENT_THEORY = SGP/SGP4

EPOCH          = 2026-03-07T04:33:08.758080
MEAN_MOTION    = 14.20245016
ECCENTRICITY   = .0057949
INCLINATION    = 98.3977
RA_OF_ASC_NODE = 179.5938
ARG_OF_PERICENTER = 302.0241
MEAN_ANOMALY   = 57.5314

EPHEMERIS_TYPE = 0
CLASSIFICATION_TYPE = U
NORAD_CAT_ID   = 31114
ELEMENT_SET_NO = 999
REV_AT_EPOCH   = 97936
BSTAR          = .92326E-4
MEAN_MOTION_DOT = .159E-5
MEAN_MOTION_DDOT = 0

CCSDS_OMM_VERS = 2.0
CREATION_DATE  = 
ORIGINATOR     = 

OBJECT_NAME    = COSMO-SKYMED 1
OBJECT_ID      = 2007-023A
CENTER_NAME    = EARTH
REF_FRAME      = TEME
TIME_SYSTEM    = UTC
MEAN_ELEMENT_THEORY = SGP/SGP4

EPOCH          = 2026-03-07T04:34:23.302272
MEAN_MOTION    = 14.96508951
ECCENTRICITY   = .0000992
INCLINATION    = 97.8866
RA_OF_ASC_NODE = 257.2026
ARG_OF_PERICENTER = 100.1471
MEAN_ANOMALY   = 259.9861

EPHEMERIS_TYPE = 0
CLASSIFICATION_TYPE = U
NORAD_CAT_ID   = 31598
ELEMENT_SET_NO = 999
REV_AT_EPOCH   = 1453
BSTAR          = .3557E-3
MEAN_MOTION_DOT = .3983E-4
MEAN_MOTION_DDOT = 0

CCSDS_OMM_VERS = 2.0
CREATION_DATE  = 
ORIGINATOR     = 

OBJECT_NAME    = COSMOS 2428
OBJECT_ID      = 2007-029A
CENTER_NAME    = EARTH
REF_FRAME      = TEME
TIME_SYSTEM    = UTC
MEAN_ELEMENT_THEORY = SGP/SGP4

EPOCH          = 2026-03-07T03:03:52.376256
MEAN_MOTION    = 14.12945507
ECCENTRICITY   = .0008993
INCLINATION    = 70.9428
RA_OF_ASC_NODE = 208.7201
ARG_OF_PERICENTER = 279.6115
MEAN_ANOMALY   = 80.3990

EPHEMERIS_TYPE = 0
CLASSIFICATION_TYPE = U
NORAD_CAT_ID   = 31792
ELEMENT_SET_NO = 999
REV_AT_EPOCH   = 96373
BSTAR          = .63552E-4
MEAN_MOTION_DOT = .71E-6
MEAN_MOTION_DDOT = 0

CCSDS_OMM_VERS = 2.0
CREATION_DATE  = 
ORIGINATOR     = 

OBJECT_NAME    = SL-16 R/B
OBJECT_ID      = 2007-029B
CENTER_NAME    = EARTH
REF_FRAME      = TEME
TIME_SYSTEM    = UTC
MEAN_ELEMENT_THEORY = SGP/SGP4

EPOCH          = 2026-03-07T00:58:06.259008
MEAN_MOTION    = 14.14833235
ECCENTRICITY   = .0002359
INCLINATION    = 70.9757
RA_OF_ASC_NODE = 177.9533
ARG_OF_PERICENTER = 277.0170
MEAN_ANOMALY   = 255.5967

EPHEMERIS_TYPE = 0
CLASSIFICATION_TYPE = U
NORAD_CAT_ID   = 31793
ELEMENT_SET_NO = 999
REV_AT_EPOCH   = 96499
BSTAR          = -.63099E-5
MEAN_MOTION_DOT = -.6E-6
MEAN_MOTION_DDOT = 0

CCSDS_OMM_VERS = 2.0
CREATION_DATE  = 
ORIGINATOR     = 

OBJECT_NAME    = KORONAS-FOTON
OBJECT_ID      = 2009-003A
CENTER_NAME    = EARTH
REF_FRAME      = TEME
TIME_SYSTEM    = UTC
MEAN_ELEMENT_THEORY = SGP/SGP4

EPOCH          = 2026-03-07T00:59:08.179296
MEAN_MOTION    = 15.43244793
ECCENTRICITY   = .0011087
INCLINATION    = 82.4274
RA_OF_ASC_NODE = 278.6320
ARG_OF_PERICENTER = 158.6844
MEAN_ANOMALY   = 201.4867

EPHEMERIS_TYPE = 0
CLASSIFICATION_TYPE = U
NORAD_CAT_ID   = 33504
ELEMENT_SET_NO = 999
REV_AT_EPOCH   = 94533
BSTAR          = .27419E-3
MEAN_MOTION_DOT = .12247E-3
MEAN_MOTION_DDOT = 0

CCSDS_OMM_VERS = 2.0
CREATION_DATE  = 
ORIGINATOR     = 

OBJECT_NAME    = CZ-2C R/B
OBJECT_ID      = 2011-030B
CENTER_NAME    = EARTH
REF_FRAME      = TEME
TIME_SYSTEM    = UTC
MEAN_ELEMENT_THEORY = SGP/SGP4

EPOCH          = 2026-03-06T21:51:24.950016
MEAN_MOTION    = 14.81208917
ECCENTRICITY   = .0052695
INCLINATION    = 97.8547
RA_OF_ASC_NODE = 23.2296
ARG_OF_PERICENTER = 1.1084
MEAN_ANOMALY   = 64.9090

EPHEMERIS_TYPE = 0
CLASSIFICATION_TYPE = U
NORAD_CAT_ID   = 37731
ELEMENT_SET_NO = 999
REV_AT_EPOCH   = 78968
BSTAR          = .2923E-3
MEAN_MOTION_DOT = .2275E-4
MEAN_MOTION_DDOT = 0

CCSDS_OMM_VERS = 2.0
CREATION_DATE  = 
ORIGINATOR     = 

OBJECT_NAME    = H-2A R/B
OBJECT_ID      = 2012-025E
CENTER_NAME    = EARTH
REF_FRAME      = TEME
TIME_SYSTEM    = UTC
MEAN_ELEMENT_THEORY = SGP/SGP4

EPOCH          = 2026-03-07T04:27:08.762112
MEAN_MOTION    = 14.95140776
ECCENTRICITY   = .0043496
INCLINATION    = 98.4735
RA_OF_ASC_NODE = 33.0310
ARG_OF_PERICENTER = 322.8445
MEAN_ANOMALY   = 36.9764

EPHEMERIS_TYPE = 0
CLASSIFICATION_TYPE = U
NORAD_CAT_ID   = 38341
ELEMENT_SET_NO = 999
REV_AT_EPOCH   = 74784
BSTAR          = .47843E-3
MEAN_MOTION_DOT = .5281E-4
MEAN_MOTION_DDOT = 0

CCSDS_OMM_VERS = 2.0
CREATION_DATE  = 
ORIGINATOR     = 

OBJECT_NAME    = SHIJIAN-16 (SJ-16)
OBJECT_ID      = 2013-057A
CENTER_NAME    = EARTH
REF_FRAME      = TEME
TIME_SYSTEM    = UTC
MEAN_ELEMENT_THEORY = SGP/SGP4

EPOCH          = 2026-03-07T05:10:30.063936
MEAN_MOTION    = 14.92336200
ECCENTRICITY   = .0015579
INCLINATION    = 74.9734
RA_OF_ASC_NODE = 189.7706
ARG_OF_PERICENTER = 119.0998
MEAN_ANOMALY   = 241.1752

EPHEMERIS_TYPE = 0
CLASSIFICATION_TYPE = U
NORAD_CAT_ID   = 39358
ELEMENT_SET_NO = 999
REV_AT_EPOCH   = 67113
BSTAR          = .65523E-3
MEAN_MOTION_DOT = .6691E-4
MEAN_MOTION_DDOT = 0

CCSDS_OMM_VERS = 2.0
CREATION_DATE  = 
ORIGINATOR     = 

OBJECT_NAME    = SL-4 R/B
OBJECT_ID      = 2014-021B
CENTER_NAME    = EARTH
REF_FRAME      = TEME
TIME_SYSTEM    = UTC
MEAN_ELEMENT_THEORY = SGP/SGP4

EPOCH          = 2026-03-07T03:52:46.170336
MEAN_MOTION    = 15.39078300
ECCENTRICITY   = .0097799
INCLINATION    = 51.6088
RA_OF_ASC_NODE = 349.6101
ARG_OF_PERICENTER = 93.7843
MEAN_ANOMALY   = 267.4330

EPHEMERIS_TYPE = 0
CLASSIFICATION_TYPE = U
NORAD_CAT_ID   = 39679
ELEMENT_SET_NO = 999
REV_AT_EPOCH   = 65588
BSTAR          = .36867E-3
MEAN_MOTION_DOT = .16718E-3
MEAN_MOTION_DDOT = 0

